*******************************************************************************
Ephemeris / WWW_USER Mon Jul 15 19:06:38 2024 Pasadena, USA      / Horizons    
*******************************************************************************
Target body name: (2017 SN16)                     {source: JPL#20}
Center body name: Earth (399)                     {source: DE441}
Center-site name: Gemini South Obs., Cerro Pachon
*******************************************************************************
Start time      : A.D. 2019-Jan-29 23:52:00.0000 UT      
Stop  time      : A.D. 2019-Jan-30 10:00:00.0000 UT      
Step-size       : 1 minutes
*******************************************************************************
Target pole/equ : undefined
Target radii    : undefined                                                    
Center geodetic : 289.2634, -30.2406227, 2.71233  {E-lon(deg),Lat(deg),Alt(km)}
Center cylindric: 289.2634,5517.21435,-3194.81213 {E-lon(deg),Dxy(km),Dz(km)}
Center pole/equ : ITRF93                          {East-longitude positive}
Center radii    : 6378.137, 6378.137, 6356.752 km {Equator_a, b, pole_c}       
Target primary  : Sun
Vis. interferer : MOON (R_eq= 1737.400) km        {source: DE441}
Rel. light bend : Sun                             {source: DE441}
Rel. lght bnd GM: 1.3271E+11 km^3/s^2                                          
Small-body perts: Yes                             {source: SB441-N16}
Atmos refraction: NO (AIRLESS)
RA format       : HMS
Time format     : CAL 
Calendar mode   : Mixed Julian/Gregorian
RTS-only print  : NO       
EOP file        : eop.240715.p241008                                           
EOP coverage    : DATA-BASED 1962-JAN-20 TO 2024-JUL-15. PREDICTS-> 2024-OCT-07
Units conversion: 1 au= 149597870.700 km, c= 299792.458 km/s, 1 day= 86400.0 s 
Table cut-offs 1: Elevation (-90.0deg=NO ),Airmass (>38.000=NO), Daylight (YES)
Table cut-offs 2: Solar elongation (  0.0,180.0=NO ),Local Hour Angle( 0.0=NO )
Table cut-offs 3: RA/DEC angular rate (     0.0=NO )                           
*******************************************************************************
Initial IAU76/J2000 heliocentric ecliptic osculating elements (au, days, deg.):
  EPOCH=  2458305.5 ! 2018-Jul-06.00 (TDB)         Residual RMS= .23751        
   EC= .1454884975659386   QR= .8682464985612274   TP= 2458145.5722438502      
   OM= 2.759719470837934   W=  137.1017088998531   IN= 13.38264682844635       
  Equivalent ICRF heliocentric cartesian coordinates (au, au/d):
   X= 5.756755401261899E-01  Y=-7.953424559592890E-01  Z=-6.031561894536019E-01
  VX= 1.332076113263395E-02 VY= 5.454663564585547E-03 VZ= 3.896229736425836E-03
Asteroid physical parameters (km, seconds, rotational period in hours):        
   GM= n.a.                RAD= n.a.               ROTPER= n.a.                
   H= 23.34                G= .150                 B-V= n.a.                   
                           ALBEDO= n.a.            STYP= n.a.                  
*******************************************************************************
 Date__(UT)__HR:MN     R.A._________(ICRF)_________DEC
******************************************************
$$SOE
 2019-Jan-30 03:58     18 58 28.383387 +25 44 25.51891
 2019-Jan-30 03:59     18 58 28.340492 +25 44 23.20679
 2019-Jan-30 04:00     18 58 28.297587 +25 44 20.89491
 2019-Jan-30 04:01     18 58 28.254673 +25 44 18.58326
 2019-Jan-30 04:02     18 58 28.211748 +25 44 16.27184
 2019-Jan-30 04:03     18 58 28.168814 +25 44 13.96066
 2019-Jan-30 04:04     18 58 28.125869 +25 44 11.64971
 2019-Jan-30 04:05     18 58 28.082913 +25 44 09.33899
 2019-Jan-30 04:06     18 58 28.039947 +25 44 07.02851
 2019-Jan-30 04:07     18 58 27.996970 +25 44 04.71825
 2019-Jan-30 04:08     18 58 27.953981 +25 44 02.40823
 2019-Jan-30 04:09     18 58 27.910981 +25 44 00.09844
 2019-Jan-30 04:10     18 58 27.867969 +25 43 57.78889
 2019-Jan-30 04:11     18 58 27.824945 +25 43 55.47956
 2019-Jan-30 04:12     18 58 27.781909 +25 43 53.17046
 2019-Jan-30 04:13     18 58 27.738861 +25 43 50.86160
 2019-Jan-30 04:14     18 58 27.695800 +25 43 48.55296
 2019-Jan-30 04:15     18 58 27.652727 +25 43 46.24455
 2019-Jan-30 04:16     18 58 27.609640 +25 43 43.93638
 2019-Jan-30 04:17     18 58 27.566540 +25 43 41.62843
 2019-Jan-30 04:18     18 58 27.523427 +25 43 39.32070
 2019-Jan-30 04:19     18 58 27.480300 +25 43 37.01321
 2019-Jan-30 04:20     18 58 27.437159 +25 43 34.70594
 2019-Jan-30 04:21     18 58 27.394004 +25 43 32.39890
 2019-Jan-30 04:22     18 58 27.350835 +25 43 30.09209
 2019-Jan-30 04:23     18 58 27.307651 +25 43 27.78550
 2019-Jan-30 04:24     18 58 27.264453 +25 43 25.47914
 2019-Jan-30 04:25     18 58 27.221239 +25 43 23.17300
 2019-Jan-30 04:26     18 58 27.178011 +25 43 20.86709
 2019-Jan-30 04:27     18 58 27.134767 +25 43 18.56140
 2019-Jan-30 04:28     18 58 27.091507 +25 43 16.25593
 2019-Jan-30 04:29     18 58 27.048232 +25 43 13.95069
 2019-Jan-30 04:30     18 58 27.004941 +25 43 11.64567
 2019-Jan-30 04:31     18 58 26.961633 +25 43 09.34087
 2019-Jan-30 04:32     18 58 26.918309 +25 43 07.03629
 2019-Jan-30 04:33     18 58 26.874969 +25 43 04.73194
 2019-Jan-30 04:34     18 58 26.831611 +25 43 02.42780
 2019-Jan-30 04:35     18 58 26.788237 +25 43 00.12389
 2019-Jan-30 04:36     18 58 26.744845 +25 42 57.82020
 2019-Jan-30 04:37     18 58 26.701436 +25 42 55.51672
 2019-Jan-30 04:38     18 58 26.658009 +25 42 53.21346
 2019-Jan-30 04:39     18 58 26.614564 +25 42 50.91043
 2019-Jan-30 04:40     18 58 26.571102 +25 42 48.60760
 2019-Jan-30 04:41     18 58 26.527621 +25 42 46.30500
 2019-Jan-30 04:42     18 58 26.484121 +25 42 44.00261
 2019-Jan-30 04:43     18 58 26.440603 +25 42 41.70044
 2019-Jan-30 04:44     18 58 26.397065 +25 42 39.39848
 2019-Jan-30 04:45     18 58 26.353509 +25 42 37.09674
 2019-Jan-30 04:46     18 58 26.309933 +25 42 34.79522
 2019-Jan-30 04:47     18 58 26.266338 +25 42 32.49390
 2019-Jan-30 04:48     18 58 26.222723 +25 42 30.19280
 2019-Jan-30 04:49     18 58 26.179088 +25 42 27.89191
 2019-Jan-30 04:50     18 58 26.135433 +25 42 25.59124
 2019-Jan-30 04:51     18 58 26.091757 +25 42 23.29077
 2019-Jan-30 04:52     18 58 26.048061 +25 42 20.99052
 2019-Jan-30 04:53     18 58 26.004344 +25 42 18.69047
 2019-Jan-30 04:54     18 58 25.960607 +25 42 16.39064
 2019-Jan-30 04:55     18 58 25.916848 +25 42 14.09101
 2019-Jan-30 04:56     18 58 25.873067 +25 42 11.79160
 2019-Jan-30 04:57     18 58 25.829266 +25 42 09.49239
 2019-Jan-30 04:58     18 58 25.785442 +25 42 07.19338
 2019-Jan-30 04:59     18 58 25.741596 +25 42 04.89459
 2019-Jan-30 05:00     18 58 25.697729 +25 42 02.59600
 2019-Jan-30 05:01     18 58 25.653839 +25 42 00.29761
 2019-Jan-30 05:02     18 58 25.609926 +25 41 57.99943
 2019-Jan-30 05:03     18 58 25.565991 +25 41 55.70145
 2019-Jan-30 05:04     18 58 25.522032 +25 41 53.40368
 2019-Jan-30 05:05     18 58 25.478051 +25 41 51.10611
 2019-Jan-30 05:06     18 58 25.434046 +25 41 48.80874
 2019-Jan-30 05:07     18 58 25.390017 +25 41 46.51157
 2019-Jan-30 05:08     18 58 25.345965 +25 41 44.21460
 2019-Jan-30 05:09     18 58 25.301889 +25 41 41.91784
 2019-Jan-30 05:10     18 58 25.257789 +25 41 39.62127
 2019-Jan-30 05:11     18 58 25.213664 +25 41 37.32490
 2019-Jan-30 05:12     18 58 25.169515 +25 41 35.02873
 2019-Jan-30 05:13     18 58 25.125341 +25 41 32.73275
 2019-Jan-30 05:14     18 58 25.081143 +25 41 30.43697
 2019-Jan-30 05:15     18 58 25.036919 +25 41 28.14139
 2019-Jan-30 05:16     18 58 24.992670 +25 41 25.84600
 2019-Jan-30 05:17     18 58 24.948395 +25 41 23.55080
 2019-Jan-30 05:18     18 58 24.904095 +25 41 21.25580
 2019-Jan-30 05:19     18 58 24.859769 +25 41 18.96099
 2019-Jan-30 05:20     18 58 24.815417 +25 41 16.66638
 2019-Jan-30 05:21     18 58 24.771039 +25 41 14.37195
 2019-Jan-30 05:22     18 58 24.726634 +25 41 12.07772
 2019-Jan-30 05:23     18 58 24.682203 +25 41 09.78367
 2019-Jan-30 05:24     18 58 24.637744 +25 41 07.48982
 2019-Jan-30 05:25     18 58 24.593259 +25 41 05.19615
 2019-Jan-30 05:26     18 58 24.548747 +25 41 02.90267
 2019-Jan-30 05:27     18 58 24.504207 +25 41 00.60938
 2019-Jan-30 05:28     18 58 24.459640 +25 40 58.31627
 2019-Jan-30 05:29     18 58 24.415045 +25 40 56.02335
 2019-Jan-30 05:30     18 58 24.370423 +25 40 53.73061
 2019-Jan-30 05:31     18 58 24.325772 +25 40 51.43805
 2019-Jan-30 05:32     18 58 24.281092 +25 40 49.14568
 2019-Jan-30 05:33     18 58 24.236385 +25 40 46.85349
 2019-Jan-30 05:34     18 58 24.191649 +25 40 44.56148
 2019-Jan-30 05:35     18 58 24.146883 +25 40 42.26966
 2019-Jan-30 05:36     18 58 24.102089 +25 40 39.97801
 2019-Jan-30 05:37     18 58 24.057266 +25 40 37.68654
 2019-Jan-30 05:38     18 58 24.012414 +25 40 35.39524
 2019-Jan-30 05:39     18 58 23.967531 +25 40 33.10413
 2019-Jan-30 05:40     18 58 23.922620 +25 40 30.81319
 2019-Jan-30 05:41     18 58 23.877678 +25 40 28.52243
 2019-Jan-30 05:42     18 58 23.832706 +25 40 26.23184
 2019-Jan-30 05:43     18 58 23.787704 +25 40 23.94142
 2019-Jan-30 05:44  m  18 58 23.742672 +25 40 21.65118
 2019-Jan-30 05:45  m  18 58 23.697609 +25 40 19.36111
 2019-Jan-30 05:46  m  18 58 23.652515 +25 40 17.07121
 2019-Jan-30 05:47  m  18 58 23.607390 +25 40 14.78149
 2019-Jan-30 05:48  m  18 58 23.562235 +25 40 12.49193
 2019-Jan-30 05:49  m  18 58 23.517047 +25 40 10.20254
 2019-Jan-30 05:50  m  18 58 23.471829 +25 40 07.91331
 2019-Jan-30 05:51  m  18 58 23.426579 +25 40 05.62426
 2019-Jan-30 05:52  m  18 58 23.381297 +25 40 03.33537
 2019-Jan-30 05:53  m  18 58 23.335983 +25 40 01.04664
 2019-Jan-30 05:54  m  18 58 23.290637 +25 39 58.75808
 2019-Jan-30 05:55  m  18 58 23.245259 +25 39 56.46969
 2019-Jan-30 05:56  m  18 58 23.199848 +25 39 54.18145
 2019-Jan-30 05:57  m  18 58 23.154405 +25 39 51.89338
 2019-Jan-30 05:58  m  18 58 23.108928 +25 39 49.60547
 2019-Jan-30 05:59  m  18 58 23.063419 +25 39 47.31771
 2019-Jan-30 06:00  m  18 58 23.017877 +25 39 45.03012
